[{"OBJECT_NAME":"SITRO-AIS 6 (CHIRKIN)","OBJECT_ID":"2023-091AC","EPOCH":"2026-03-09T23:26:09.745152","MEAN_MOTION":15.244139,"ECCENTRICITY":0.00142211,"INCLINATION":97.5181,"RA_OF_ASC_NODE":131.6463,"ARG_OF_PERICENTER":95.0602,"MEAN_ANOMALY":265.2259,"EPHEMERIS_TYPE":0,"CLASSIFICATION_TYPE":"U","NORAD_CAT_ID":57192,"ELEMENT_SET_NO":999,"REV_AT_EPOCH":14916,"BSTAR":0.00035317072,"MEAN_MOTION_DOT":8.613e-5,"MEAN_MOTION_DDOT":0},{"OBJECT_NAME":"SUPERVIEW NEO-1 04","OBJECT_ID":"2025-040B","EPOCH":"2026-03-06T19:28:03.599328","MEAN_MOTION":15.21660643,"ECCENTRICITY":0.00018105,"INCLINATION":97.3404,"RA_OF_ASC_NODE":182.7609,"ARG_OF_PERICENTER":125.6161,"MEAN_ANOMALY":234.5244,"EPHEMERIS_TYPE":0,"CLASSIFICATION_TYPE":"U","NORAD_CAT_ID":63126,"ELEMENT_SET_NO":999,"REV_AT_EPOCH":5662,"BSTAR":0.00040582804,"MEAN_MOTION_DOT":9.111e-5,"MEAN_MOTION_DDOT":0}]
